SL-3 R/B                
1 19046U 88032B   17233.20810072  .00001088  00000-0  85775-4 0  9990
2 19046  97.5238 278.2216 0037712 112.2280 248.2952 15.02257021582406
SL-16 R/B               
1 19120U 88039B   17233.21997744 -.00000140  00000-0 -43782-4 0  9995
2 19120  71.0131 187.5114 0019713  88.3491 271.9892 14.19167245515615
COSMOS 1953             
1 19210U 88050A   17232.84032198  .00000138  00000-0  75457-5 0  9999
2 19210  82.5201 330.7014 0014142  45.5560 314.6821 15.05321121566438
SL-8 R/B                
1 19257U 88053B   17233.56015333  .00000081  00000-0  35844-4 0  9997
2 19257  74.0481  96.3627 0020910 328.6165  51.9673 14.37364468528165
COSMOS 1975             
1 19573U 88093A   17233.19707727  .00000339  00000-0  22258-4 0  9997
2 19573  82.5190 282.5839 0016217  79.3043 281.0008 15.04211585569586
SL-14 R/B               
1 19574U 88093B   17233.57466774  .00000103  00000-0  97122-5 0  9996
2 19574  82.5300  83.9400 0020122 260.5119 156.2206 14.83227229559147
SL-16 R/B               
1 19650U 88102B   17233.22306201 -.00000233  00000-0 -94147-4 0  9991
2 19650  70.9973 238.3436 0011955  82.5736 277.6745 14.15759072485195
INTERCOSMOS 24          
1 20261U 89080A   17232.86433623  .00000080  00000-0  23008-4 0  9991
2 20261  82.5972 328.0469 1203410 307.6538  42.1155 12.55891240274492
SL-14 R/B               
1 20262U 89080C   17232.83718302  .00000081  00000-0  14476-4 0  9999
2 20262  82.5959  14.6778 1237998 109.1831 264.7200 12.48869544270211
DELTA 1 R/B             
1 20323U 89089B   17232.86050062  .00000013  00000-0  12677-4 0  9997
2 20323  97.1121 168.5231 0070444 236.5025 122.9427 14.48208553464080
DELTA 2 R/B(1)          
1 20453U 90008B   17233.14646306  .00002765  00000-0  15964-3 0  9995
2 20453  35.6245 208.6244 0288871 348.3653  11.0489 14.83322868457850
COSMOS 2058             
1 20465U 90010A   17233.43348947  .00000392  00000-0  31176-4 0  9991
2 20465  82.4908 185.1246 0017301  76.2702 284.0446 14.97543971495100
SL-14 R/B               
1 20466U 90010B   17232.74975151  .00000091  00000-0  85247-5 0  9993
2 20466  82.5049 312.1984 0021850 124.2661 236.0626 14.81288912487057
SL-14 R/B               
1 20511U 90018B   17233.56652189  .00000114  00000-0  12038-4 0  9999
2 20511  82.5205 253.2211 0015955 257.6540 217.5123 14.79947641481739
HST                     
1 20580U 90037B   17232.65080544  .00000584  00000-0  25019-4 0  9999
2 20580  28.4698 301.5451 0002833 142.0620 349.1042 15.08818966299942
SL-16 R/B               
1 20625U 90046B   17233.54546141 -.00000108  00000-0 -31272-4 0  9990
2 20625  71.0014  11.9640 0014364 358.5365   1.5713 14.14623004407085
COSMOS 2084             
1 20663U 90055A   17233.52474355  .00000311  00000-0  43499-4 0  9995
2 20663  62.7932  10.0470 0140109  96.4475 265.2594 14.91625001469551
SL-6 R/B(2)             
1 20666U 90055D   17233.50405494  .00000114  00000-0  27666-4 0  9993
2 20666  62.7838 288.7401 0127279 115.7110 245.7189 14.91967790470921
SL-8 R/B                
1 20775U 90078B   17232.78808515  .00005181  00000-0  25613-3 0  9997
2 20775  82.9319 355.2259 0588481 143.1117 221.2107 14.30913548358007
SL-8 R/B                
1 21088U 91006B   17232.80998862  .00000032  00000-0  17100-4 0  9998
2 21088  82.9454 332.1961 0023574 137.2257 336.0775 13.77064967334490
OKEAN-3                 
1 21397U 91039A   17233.15621709  .00000339  00000-0  30406-4 0  9993
2 21397  82.5196  76.7019 0018608  24.6719 335.5387 14.92515375419478
COSMOS 2151             
1 21422U 91042A   17232.92500967  .00000235  00000-0  20631-4 0  9996
2 21422  82.5018 184.8431 0015962  79.4381 280.8635 14.91845710397079
SL-14 R/B               
1 21423U 91042B   17233.18221022  .00000123  00000-0  13231-4 0  9992
2 21423  82.4916 260.6760 0018624  41.6222 318.6404 14.79699984412198
ERS-1                   
1 21574U 91050A   17233.48110400  .00000063  00000-0  35177-4 0  9994
2 21574  98.4636 179.6166 0033993 118.8441 241.6164 14.37599882366978
ARIANE 40 R/B           
1 21610U 91050F   17233.17694649  .00000007  00000-0  16391-4 0  9998
2 21610  98.5994 290.1151 0004386 105.9157 318.0958 14.40803761369471
INTERCOSMOS 25          
1 21819U 91086A   17232.90410216  .00000352  00000-0  69518-4 0  9996
2 21819  82.5680  24.1033 1522506 309.2321  38.2923 12.04588906120054
SL-14 R/B               
1 21820U 91086B   17232.74016103  .00000237  00000-0  40598-4 0  9996
2 21820  82.5572  80.4011 1577163 140.0756 232.7755 11.93319530114485
SL-8 R/B                
1 21876U 92008B   17233.07980590 -.00000026  00000-0 -42530-4 0  9995
2 21876  82.9235  68.9813 0034072 211.3730 261.6945 13.75608304280306
SL-8 R/B                
1 21938U 92020B   17232.82520840  .00000006  00000-0 -96338-5 0  9991
2 21938  82.9314 312.4760 0029392  14.5041 124.5502 13.75258921271872
SL-16 R/B               
1 22220U 92076B   17233.22996767 -.00000194  00000-0 -73313-4 0  9993
2 22220  70.9995 282.3389 0012781 184.5999 252.5866 14.16419320279988
SL-16 R/B               
1 22285U 92093B   17232.98883089 -.00000288  00000-0 -12401-3 0  9991
2 22285  71.0207  76.3450 0003793 355.9853   4.1239 14.15011164271703
COSMOS 2228             
1 22286U 92094A   17233.22386630  .00000268  00000-0  26632-4 0  9999
2 22286  82.5229 312.7834 0018989 265.2518  94.6531 14.87688650332168
SL-16 R/B               
1 22566U 93016B   17233.17548884 -.00000098  00000-0 -25848-4 0  9991
2 22566  71.0080 290.5117 0009317  21.5149 338.6363 14.14952951260467
COSMOS 2242             
1 22626U 93024A   17232.83946845  .00000203  00000-0  19590-4 0  9991
2 22626  82.5245 340.8661 0017515 265.7305  94.1911 14.87685691315763
SL-16 R/B               
1 22803U 93059B   17233.11059697 -.00000084  00000-0 -17971-4 0  9998
2 22803  70.9905 112.6318 0019491 285.1640  74.7327 14.16778394237472
ARIANE 40 R/B           
1 22830U 93061H   17232.09760109 -.00000048  00000-0 -66799-6 0  9998
2 22830  98.8833 248.9577 0011979 100.3799 296.0789 14.31411157247398
COSMOS 2278             
1 23087U 94023A   17233.22714731  .00000284  00000-0  17486-3 0  9994
2 23087  71.0510 223.0403 0007373 122.8296 237.3537 14.13747001203687
SL-16 R/B               
1 23088U 94023B   17233.18457452 -.00000315  00000-0 -13890-3 0  9996
2 23088  71.0005 145.6380 0004180 325.5825  34.5026 14.14657223204737
SL-16 R/B               
1 23343U 94074B   17233.18079156  .00000007  00000-0  85335-5 0  9998
2 23343  98.1482 270.8950 0006056 215.5734 172.0382 14.76705532226423
SL-16 R/B               
1 23405U 94077B   17232.95198277  .00000007  00000-0  28206-4 0  9993
2 23405  70.9830  79.2313 0004467 246.5974 113.4680 14.15201893174421
ERS-2                   
1 23560U 95021A   17233.50273326  .00002016  00000-0  95344-4 0  9995
2 23560  98.5586 234.6416 0005103  85.6883 274.4932 15.20827995185319
ARIANE 40+ R/B          
1 23561U 95021B   17233.12439076  .00000025  00000-0  23723-4 0  9990
2 23561  98.7952 235.8199 0008083  70.3797 338.2768 14.37825742170589
SL-16 R/B               
1 23705U 95058B   17233.20045890 -.00000259  00000-0 -10900-3 0  9999
2 23705  71.0192 252.6339 0013527 208.6610 151.3771 14.15102217126389
SL-16 R/B               
1 24298U 96051B   17233.51634972 -.00000060  00000-0 -61422-5 0  9997
2 24298  70.8494 284.4364 0013078  88.8334 271.4285 14.12495464 81045
ORBVIEW 2 (SEASTAR)     
1 24883U 97037A   17233.52423051  .00000042  00000-0  31253-4 0  9993
2 24883  98.5459 341.3229 0001156 271.0372  89.0680 14.33403319 61263
SL-16 R/B               
1 25400U 98043G   17232.93428465 -.00000017  00000-0  10692-4 0  9992
2 25400  98.4926 179.1027 0010991 104.5517 255.6883 14.25415671994297
SL-16 R/B               
1 25407U 98045B   17233.15311201 -.00000217  00000-0 -86003-4 0  9997
2 25407  71.0097 264.9094 0005594 115.1478 245.0226 14.15761868985378
ISS (ZARYA)             
1 25544U 98067A   17233.57712124  .00002025  00000-0  37781-4 0  9994
2 25544  51.6402  72.3480 0005060 159.9509 305.5186 15.54180642 71926
SL-8 R/B                
1 25723U 99022C   17232.89224574  .00008341  00000-0  12911-3 0  9990
2 25723  48.4154 182.2258 0010237 344.7410  15.3226 15.54800726 16241
CZ-4B R/B               
1 25732U 99025C   17233.10921264 -.00000016  00000-0  14782-4 0  9999
2 25732  98.9939 235.6500 0036322 266.6260 134.5240 14.17634958945839
OKEAN-O                 
1 25860U 99039A   17233.06497703  .00000042  00000-0  13644-4 0  9991
2 25860  98.1913 218.8449 0000883  76.4223 283.7084 14.76488887973409
SL-16 R/B               
1 25861U 99039B   17232.94212972  .00000042  00000-0  13220-4 0  9991
2 25861  98.1113 204.7131 0014595 230.2088 192.1461 14.78423335975232
TERRA                   
1 25994U 99068A   17233.23518194  .00000345  00000-0  86526-4 0  9993
2 25994  98.2018 307.3403 0000958  79.2828 280.8466 14.57109637940142
ENVISAT                 
1 27386U 02009A   17233.37992983 -.00000027  00000-0  48596-5 0  9990
2 27386  98.2257 275.9171 0001299  83.8084 276.3256 14.37900704810448
IDEFIX & ARIANE 42P R/B 
1 27422U 02021B   17232.07578404 -.00000047  00000-0 -23790-5 0  9991
2 27422  98.2331 228.8302 0013343  50.7439 309.4926 14.29255298795801
AQUA                    
1 27424U 02022A   17233.56478862  .00000105  00000-0  33250-4 0  9990
2 27424  98.2071 173.8903 0000264 339.3360 209.8171 14.57115663813793
CZ-4B R/B               
1 27432U 02024C   17232.91311164 -.00000018  00000-0  14243-4 0  9995
2 27432  98.9936 206.8712 0049914 208.3150 205.3777 14.14047773787940
MIDORI II (ADEOS-II)    
1 27597U 02056A   17232.89702220  .00000039  00000-0  32726-4 0  9994
2 27597  98.3753 199.7307 0001964 107.9627 252.1768 14.27298596764657
H-2A R/B                
1 27601U 02056E   17232.77440727  .00000022  00000-0  22871-4 0  9990
2 27601  98.3716 298.3235 0073408 103.8632   4.9321 14.31792705767052
